[{"OBJECT_NAME":"FLOCK 4G-26","OBJECT_ID":"2025-009AA","EPOCH":"2026-03-09T19:19:02.910720","MEAN_MOTION":15.27281631,"ECCENTRICITY":0.0001988,"INCLINATION":97.4054,"RA_OF_ASC_NODE":151.3913,"ARG_OF_PERICENTER":299.1273,"MEAN_ANOMALY":60.9767,"EPHEMERIS_TYPE":0,"CLASSIFICATION_TYPE":"U","NORAD_CAT_ID":62633,"ELEMENT_SET_NO":999,"REV_AT_EPOCH":6373,"BSTAR":0.00042468806,"MEAN_MOTION_DOT":0.00011283,"MEAN_MOTION_DDOT":0},{"OBJECT_NAME":"STARLINK-35868","OBJECT_ID":"2025-268Y","EPOCH":"2026-03-09T04:27:09.131040","MEAN_MOTION":15.27589789,"ECCENTRICITY":0.00030314,"INCLINATION":43.0033,"RA_OF_ASC_NODE":349.8208,"ARG_OF_PERICENTER":249.1192,"MEAN_ANOMALY":110.9336,"EPHEMERIS_TYPE":0,"CLASSIFICATION_TYPE":"U","NORAD_CAT_ID":66579,"ELEMENT_SET_NO":999,"REV_AT_EPOCH":1788,"BSTAR":0.0010188969,"MEAN_MOTION_DOT":0.00027892,"MEAN_MOTION_DDOT":0}]
